[{"OBJECT_NAME":"STARLINK-1465","OBJECT_ID":"2020-038B","EPOCH":"2026-03-05T17:03:26.856000","MEAN_MOTION":15.49206734,"ECCENTRICITY":0.0002926,"INCLINATION":53.0523,"RA_OF_ASC_NODE":242.2412,"ARG_OF_PERICENTER":227.4174,"MEAN_ANOMALY":132.6587,"EPHEMERIS_TYPE":0,"CLASSIFICATION_TYPE":"U","NORAD_CAT_ID":45731,"ELEMENT_SET_NO":999,"REV_AT_EPOCH":31576,"BSTAR":0.0021273,"MEAN_MOTION_DOT":0.00119274,"MEAN_MOTION_DDOT":0},{"OBJECT_NAME":"STARLINK-1471","OBJECT_ID":"2020-038F","EPOCH":"2026-03-05T13:56:29.803200","MEAN_MOTION":15.4863225,"ECCENTRICITY":0.0001099,"INCLINATION":53.047,"RA_OF_ASC_NODE":161.7054,"ARG_OF_PERICENTER":213.1294,"MEAN_ANOMALY":146.9645,"EPHEMERIS_TYPE":0,"CLASSIFICATION_TYPE":"U","NORAD_CAT_ID":45735,"ELEMENT_SET_NO":999,"REV_AT_EPOCH":31689,"BSTAR":0.00055717,"MEAN_MOTION_DOT":0.00029934,"MEAN_MOTION_DDOT":0},{"OBJECT_NAME":"STARLINK-1480","OBJECT_ID":"2020-038M","EPOCH":"2026-03-05T17:26:00.119328","MEAN_MOTION":15.47322405,"ECCENTRICITY":0.0007424,"INCLINATION":53.0514,"RA_OF_ASC_NODE":236.1997,"ARG_OF_PERICENTER":164.4132,"MEAN_ANOMALY":195.7105,"EPHEMERIS_TYPE":0,"CLASSIFICATION_TYPE":"U","NORAD_CAT_ID":45741,"ELEMENT_SET_NO":999,"REV_AT_EPOCH":31586,"BSTAR":0.0015035,"MEAN_MOTION_DOT":0.0007844,"MEAN_MOTION_DDOT":0},{"OBJECT_NAME":"STARLINK-1500","OBJECT_ID":"2020-038Q","EPOCH":"2026-03-05T20:02:56.616000","MEAN_MOTION":15.34524749,"ECCENTRICITY":0.0002073,"INCLINATION":53.0367,"RA_OF_ASC_NODE":210.8283,"ARG_OF_PERICENTER":223.1216,"MEAN_ANOMALY":136.9623,"EPHEMERIS_TYPE":0,"CLASSIFICATION_TYPE":"U","NORAD_CAT_ID":45744,"ELEMENT_SET_NO":999,"REV_AT_EPOCH":31622,"BSTAR":0.00097412,"MEAN_MOTION_DOT":0.00032814,"MEAN_MOTION_DDOT":0},{"OBJECT_NAME":"STARLINK-1504","OBJECT_ID":"2020-038S","EPOCH":"2026-03-05T13:37:59.672928","MEAN_MOTION":15.52850593,"ECCENTRICITY":0.0001095,"INCLINATION":53.0233,"RA_OF_ASC_NODE":162.0666,"ARG_OF_PERICENTER":173.0188,"MEAN_ANOMALY":187.0836,"EPHEMERIS_TYPE":0,"CLASSIFICATION_TYPE":"U","NORAD_CAT_ID":45746,"ELEMENT_SET_NO":999,"REV_AT_EPOCH":31687,"BSTAR":0.00059073,"MEAN_MOTION_DOT":0.00036989,"MEAN_MOTION_DDOT":0},{"OBJECT_NAME":"STARLINK-1506","OBJECT_ID":"2020-038T","EPOCH":"2026-03-05T14:23:39.753024","MEAN_MOTION":15.25901159,"ECCENTRICITY":0.0002664,"INCLINATION":53.0747,"RA_OF_ASC_NODE":221.2813,"ARG_OF_PERICENTER":205.9252,"MEAN_ANOMALY":154.1612,"EPHEMERIS_TYPE":0,"CLASSIFICATION_TYPE":"U","NORAD_CAT_ID":45747,"ELEMENT_SET_NO":999,"REV_AT_EPOCH":31606,"BSTAR":0.00074796,"MEAN_MOTION_DOT":0.00019136,"MEAN_MOTION_DDOT":0},{"OBJECT_NAME":"STARLINK-1464","OBJECT_ID":"2020-038X","EPOCH":"2026-03-05T19:29:46.595040","MEAN_MOTION":15.43388301,"ECCENTRICITY":0.0002222,"INCLINATION":53.0519,"RA_OF_ASC_NODE":223.0553,"ARG_OF_PERICENTER":215.3375,"MEAN_ANOMALY":144.7483,"EPHEMERIS_TYPE":0,"CLASSIFICATION_TYPE":"U","NORAD_CAT_ID":45751,"ELEMENT_SET_NO":999,"REV_AT_EPOCH":31605,"BSTAR":0.0019719,"MEAN_MOTION_DOT":0.00090072,"MEAN_MOTION_DDOT":0},{"OBJECT_NAME":"STARLINK-1477","OBJECT_ID":"2020-038AA","EPOCH":"2026-03-05T16:09:08.002656","MEAN_MOTION":15.14119256,"ECCENTRICITY":8.85e-5,"INCLINATION":53.0502,"RA_OF_ASC_NODE":231.2153,"ARG_OF_PERICENTER":57.9316,"MEAN_ANOMALY":302.1762,"EPHEMERIS_TYPE":0,"CLASSIFICATION_TYPE":"U","NORAD_CAT_ID":45754,"ELEMENT_SET_NO":999,"REV_AT_EPOCH":31592,"BSTAR":0.001873,"MEAN_MOTION_DOT":0.00034381,"MEAN_MOTION_DDOT":0},{"OBJECT_NAME":"STARLINK-1478","OBJECT_ID":"2020-038AB","EPOCH":"2026-03-05T22:00:01.999584","MEAN_MOTION":15.54145932,"ECCENTRICITY":0.0003905,"INCLINATION":53.051,"RA_OF_ASC_NODE":216.12,"ARG_OF_PERICENTER":212.3389,"MEAN_ANOMALY":215.3897,"EPHEMERIS_TYPE":0,"CLASSIFICATION_TYPE":"U","NORAD_CAT_ID":45755,"ELEMENT_SET_NO":999,"REV_AT_EPOCH":590,"BSTAR":0.0021608,"MEAN_MOTION_DOT":0.0014514,"MEAN_MOTION_DDOT":0},{"OBJECT_NAME":"STARLINK-1484","OBJECT_ID":"2020-038AC","EPOCH":"2026-03-05T22:00:01.999584","MEAN_MOTION":15.99582604,"ECCENTRICITY":0.0006502,"INCLINATION":52.9982,"RA_OF_ASC_NODE":76.1184,"ARG_OF_PERICENTER":49.0266,"MEAN_ANOMALY":42.6988,"EPHEMERIS_TYPE":0,"CLASSIFICATION_TYPE":"U","NORAD_CAT_ID":45756,"ELEMENT_SET_NO":999,"REV_AT_EPOCH":595,"BSTAR":0.00099615,"MEAN_MOTION_DOT":0.00508835,"MEAN_MOTION_DDOT":0.0001231},{"OBJECT_NAME":"STARLINK-1493","OBJECT_ID":"2020-038AF","EPOCH":"2026-03-05T20:07:29.829216","MEAN_MOTION":15.49421018,"ECCENTRICITY":0.0001346,"INCLINATION":53.0536,"RA_OF_ASC_NODE":222.9736,"ARG_OF_PERICENTER":65.9454,"MEAN_ANOMALY":294.1695,"EPHEMERIS_TYPE":0,"CLASSIFICATION_TYPE":"U","NORAD_CAT_ID":45759,"ELEMENT_SET_NO":999,"REV_AT_EPOCH":31604,"BSTAR":0.0016581,"MEAN_MOTION_DOT":0.00093255,"MEAN_MOTION_DDOT":0},{"OBJECT_NAME":"STARLINK-1494","OBJECT_ID":"2020-038AG","EPOCH":"2026-03-05T22:00:01.999584","MEAN_MOTION":15.72908554,"ECCENTRICITY":0.0004755,"INCLINATION":53.0485,"RA_OF_ASC_NODE":170.3684,"ARG_OF_PERICENTER":349.0675,"MEAN_ANOMALY":239.8735,"EPHEMERIS_TYPE":0,"CLASSIFICATION_TYPE":"U","NORAD_CAT_ID":45760,"ELEMENT_SET_NO":999,"REV_AT_EPOCH":580,"BSTAR":0.00045623,"MEAN_MOTION_DOT":0.00063137,"MEAN_MOTION_DDOT":0},{"OBJECT_NAME":"STARLINK-1502","OBJECT_ID":"2020-038AL","EPOCH":"2026-03-05T19:25:55.048224","MEAN_MOTION":15.46358509,"ECCENTRICITY":0.0001867,"INCLINATION":53.0532,"RA_OF_ASC_NODE":224.5689,"ARG_OF_PERICENTER":26.6112,"MEAN_ANOMALY":333.499,"EPHEMERIS_TYPE":0,"CLASSIFICATION_TYPE":"U","NORAD_CAT_ID":45764,"ELEMENT_SET_NO":999,"REV_AT_EPOCH":31603,"BSTAR":0.0018359,"MEAN_MOTION_DOT":0.00092818,"MEAN_MOTION_DDOT":0},{"OBJECT_NAME":"STARLINK-1470","OBJECT_ID":"2020-038AU","EPOCH":"2026-03-05T14:50:50.050176","MEAN_MOTION":15.2760559,"ECCENTRICITY":7.0e-5,"INCLINATION":53.0497,"RA_OF_ASC_NODE":193.2126,"ARG_OF_PERICENTER":7.666,"MEAN_ANOMALY":352.4348,"EPHEMERIS_TYPE":0,"CLASSIFICATION_TYPE":"U","NORAD_CAT_ID":45772,"ELEMENT_SET_NO":999,"REV_AT_EPOCH":31645,"BSTAR":0.0020425,"MEAN_MOTION_DOT":0.00055941,"MEAN_MOTION_DDOT":0},{"OBJECT_NAME":"STARLINK-1482","OBJECT_ID":"2020-038AV","EPOCH":"2026-03-05T13:35:16.577376","MEAN_MOTION":15.30190324,"ECCENTRICITY":0.0001469,"INCLINATION":53.1607,"RA_OF_ASC_NODE":210.1718,"ARG_OF_PERICENTER":99.145,"MEAN_ANOMALY":260.9717,"EPHEMERIS_TYPE":0,"CLASSIFICATION_TYPE":"U","NORAD_CAT_ID":45773,"ELEMENT_SET_NO":999,"REV_AT_EPOCH":31621,"BSTAR":-2.0726e-5,"MEAN_MOTION_DOT":-9.73e-6,"MEAN_MOTION_DDOT":0},{"OBJECT_NAME":"STARLINK-1496","OBJECT_ID":"2020-038BC","EPOCH":"2026-03-05T22:00:01.999584","MEAN_MOTION":15.4737469,"ECCENTRICITY":0.0003493,"INCLINATION":53.0519,"RA_OF_ASC_NODE":195.8673,"ARG_OF_PERICENTER":203.1946,"MEAN_ANOMALY":267.625,"EPHEMERIS_TYPE":0,"CLASSIFICATION_TYPE":"U","NORAD_CAT_ID":45780,"ELEMENT_SET_NO":999,"REV_AT_EPOCH":595,"BSTAR":0.0020656,"MEAN_MOTION_DOT":0.00108464,"MEAN_MOTION_DDOT":0}]
