STARLINK-1465           
1 45731U 20038B   26064.71072750  .00119274  00000+0  21273-2 0  9990
2 45731  53.0523 242.2412 0002926 227.4174 132.6587 15.49206734315768
STARLINK-1471           
1 45735U 20038F   26064.58090050  .00029934  00000+0  55717-3 0  9996
2 45735  53.0470 161.7054 0001099 213.1294 146.9645 15.48632250316898
STARLINK-1480           
1 45741U 20038M   26064.72639027  .00078440  00000+0  15035-2 0  9996
2 45741  53.0514 236.1997 0007424 164.4132 195.7105 15.47322405315860
STARLINK-1500           
1 45744U 20038Q   26064.83537750  .00032814  00000+0  97412-3 0  9996
2 45744  53.0367 210.8283 0002073 223.1216 136.9623 15.34524749316221
STARLINK-1504           
1 45746U 20038S   26064.56805177  .00036989  00000+0  59073-3 0  9997
2 45746  53.0233 162.0666 0001095 173.0188 187.0836 15.52850593316875
STARLINK-1506           
1 45747U 20038T   26064.59976566  .00019136  00000+0  74796-3 0  9996
2 45747  53.0747 221.2813 0002664 205.9252 154.1612 15.25901159316061
STARLINK-1464           
1 45751U 20038X   26064.81234485  .00090072  00000+0  19719-2 0  9994
2 45751  53.0519 223.0553 0002222 215.3375 144.7483 15.43388301316053
STARLINK-1477           
1 45754U 20038AA  26064.67300929  .00034381  00000+0  18730-2 0  9991
2 45754  53.0502 231.2153 0000885  57.9316 302.1762 15.14119256315927
STARLINK-1478           
1 45755U 20038AB  26064.91668981  .00145140  00000+0  21608-2 0  9998
2 45755  53.0510 216.1200 0003905 212.3389 215.3897 15.54145932  5907
STARLINK-1484           
1 45756U 20038AC  26064.91668981  .00508835  12310-3  99615-3 0  9998
2 45756  52.9982  76.1184 0006502  49.0266  42.6988 15.99582604  5956
STARLINK-1493           
1 45759U 20038AF  26064.83853969  .00093255  00000+0  16581-2 0  9998
2 45759  53.0536 222.9736 0001346  65.9454 294.1695 15.49421018316047
STARLINK-1494           
1 45760U 20038AG  26064.91668981  .00063137  00000+0  45623-3 0  9993
2 45760  53.0485 170.3684 0004755 349.0675 239.8735 15.72908554  5809
STARLINK-1502           
1 45764U 20038AL  26064.80966491  .00092818  00000+0  18359-2 0  9995
2 45764  53.0532 224.5689 0001867  26.6112 333.4990 15.46358509316032
STARLINK-1470           
1 45772U 20038AU  26064.61863484  .00055941  00000+0  20425-2 0  9994
2 45772  53.0497 193.2126 0000700   7.6660 352.4348 15.27605590316459
STARLINK-1482           
1 45773U 20038AV  26064.56616409 -.00000973  00000+0 -20726-4 0  9995
2 45773  53.1607 210.1718 0001469  99.1450 260.9717 15.30190324316211
STARLINK-1496           
1 45780U 20038BC  26064.91668981  .00108464  00000+0  20656-2 0  9996
2 45780  53.0519 195.8673 0003493 203.1946 267.6250 15.47374690  5955
